KSLV-II R/B             
1 66663U 25274P   25345.82274953  .00009321  00000+0  78722-3 0  9999
2 66663  97.7413 273.1735 0051573 322.7293  37.0354 14.97285082  2276
SOYUZ-MS 28             
1 66664U 25275A   25345.89616116  .00014378  00000+0  26381-3 0  9991
2 66664  51.6307 146.6565 0003297 237.1442 122.9229 15.49521399  1285
STARLINK-35867          
1 66791U 25278A   25345.83335648 -.01103553  00000+0 -41848-2 0  9998
2 66791  42.9976 257.7433 0001797 256.3036 339.3212 15.89180413  2812
STARLINK-35990          
1 66792U 25278B   25345.83335648 -.01110478  00000+0 -42070-2 0  9991
2 66792  42.9974 257.7393 0001863 257.8660 339.3286 15.89214740  2811
STARLINK-36051          
1 66793U 25278C   25345.83335648 -.01157407  00000+0 -43933-2 0  9994
2 66793  42.9977 257.7264 0001796 259.1250 343.1540 15.89288847  2711
STARLINK-36062          
1 66794U 25278D   25345.83335648 -.01139118  00000+0 -43222-2 0  9995
2 66794  42.9976 257.7320 0001807 258.3683 341.7328 15.89252888  2813
STARLINK-36047          
1 66795U 25278E   25345.83335648 -.01176520  00000+0 -44695-2 0  9999
2 66795  42.9976 257.7196 0001802 256.6557 348.3131 15.89318604  2714
STARLINK-35964          
1 66796U 25278F   25345.83335648 -.01614014  81954-3 -24820-2 0  9994
2 66796  42.9954 257.0351 0001679 256.1584 257.6687 16.03474761  2659
STARLINK-36099          
1 66797U 25278G   25345.83335648 -.01220212  00000+0 -45482-2 0  9994
2 66797  42.9976 257.7058 0001832 256.3911 354.0360 15.89362263  2872
STARLINK-36041          
1 66798U 25278H   25345.83335648 -.01222127  00000+0 -45501-2 0  9994
2 66798  42.9976 257.7006 0001802 257.1582 355.2766 15.89388673  2658
STARLINK-36044          
1 66799U 25278J   25345.83335648 -.01227899  00000+0 -45687-2 0  9991
2 66799  42.9976 257.6950 0001816 257.5343 357.1671 15.89412174  2818
STARLINK-35996          
1 66800U 25278K   25345.83335648 -.01241614  00000+0 -46137-2 0  9996
2 66800  42.9975 257.6834 0001844 258.9841   0.2264 15.89464491  2600
