CCSDS_OMM_VERS = 2.0
CREATION_DATE  = 
ORIGINATOR     = 

OBJECT_NAME    = KSLV-II R/B
OBJECT_ID      = 2025-274P
CENTER_NAME    = EARTH
REF_FRAME      = TEME
TIME_SYSTEM    = UTC
MEAN_ELEMENT_THEORY = SGP/SGP4

EPOCH          = 2025-12-11T19:44:45.559392
MEAN_MOTION    = 14.97285082
ECCENTRICITY   = .00515737
INCLINATION    = 97.7413
RA_OF_ASC_NODE = 273.1735
ARG_OF_PERICENTER = 322.7293
MEAN_ANOMALY   = 37.0354

EPHEMERIS_TYPE = 0
CLASSIFICATION_TYPE = U
NORAD_CAT_ID   = 66663
ELEMENT_SET_NO = 999
REV_AT_EPOCH   = 227
BSTAR          = .78722263E-3
MEAN_MOTION_DOT = .9321E-4
MEAN_MOTION_DDOT = 0

CCSDS_OMM_VERS = 2.0
CREATION_DATE  = 
ORIGINATOR     = 

OBJECT_NAME    = SOYUZ-MS 28
OBJECT_ID      = 2025-275A
CENTER_NAME    = EARTH
REF_FRAME      = TEME
TIME_SYSTEM    = UTC
MEAN_ELEMENT_THEORY = SGP/SGP4

EPOCH          = 2025-12-11T21:30:28.324224
MEAN_MOTION    = 15.49521399
ECCENTRICITY   = .00032978
INCLINATION    = 51.6307
RA_OF_ASC_NODE = 146.6565
ARG_OF_PERICENTER = 237.1442
MEAN_ANOMALY   = 122.9229

EPHEMERIS_TYPE = 0
CLASSIFICATION_TYPE = U
NORAD_CAT_ID   = 66664
ELEMENT_SET_NO = 999
REV_AT_EPOCH   = 128
BSTAR          = .26380738E-3
MEAN_MOTION_DOT = .14378E-3
MEAN_MOTION_DDOT = 0

CCSDS_OMM_VERS = 2.0
CREATION_DATE  = 
ORIGINATOR     = 

OBJECT_NAME    = STARLINK-35867
OBJECT_ID      = 2025-278A
CENTER_NAME    = EARTH
REF_FRAME      = TEME
TIME_SYSTEM    = UTC
MEAN_ELEMENT_THEORY = SGP/SGP4

EPOCH          = 2025-12-11T20:00:01.999872
MEAN_MOTION    = 15.89180413
ECCENTRICITY   = .0001797
INCLINATION    = 42.9976
RA_OF_ASC_NODE = 257.7433
ARG_OF_PERICENTER = 256.3036
MEAN_ANOMALY   = 339.3212

EPHEMERIS_TYPE = 0
CLASSIFICATION_TYPE = U
NORAD_CAT_ID   = 66791
ELEMENT_SET_NO = 999
REV_AT_EPOCH   = 281
BSTAR          = -.4184814E-2
MEAN_MOTION_DOT = -.1103553E-1
MEAN_MOTION_DDOT = 0

CCSDS_OMM_VERS = 2.0
CREATION_DATE  = 
ORIGINATOR     = 

OBJECT_NAME    = STARLINK-35990
OBJECT_ID      = 2025-278B
CENTER_NAME    = EARTH
REF_FRAME      = TEME
TIME_SYSTEM    = UTC
MEAN_ELEMENT_THEORY = SGP/SGP4

EPOCH          = 2025-12-11T20:00:01.999872
MEAN_MOTION    = 15.89214740
ECCENTRICITY   = .00018636
INCLINATION    = 42.9974
RA_OF_ASC_NODE = 257.7393
ARG_OF_PERICENTER = 257.8660
MEAN_ANOMALY   = 339.3286

EPHEMERIS_TYPE = 0
CLASSIFICATION_TYPE = U
NORAD_CAT_ID   = 66792
ELEMENT_SET_NO = 999
REV_AT_EPOCH   = 281
BSTAR          = -.42070079E-2
MEAN_MOTION_DOT = -.1110478E-1
MEAN_MOTION_DDOT = 0

CCSDS_OMM_VERS = 2.0
CREATION_DATE  = 
ORIGINATOR     = 

OBJECT_NAME    = STARLINK-36051
OBJECT_ID      = 2025-278C
CENTER_NAME    = EARTH
REF_FRAME      = TEME
TIME_SYSTEM    = UTC
MEAN_ELEMENT_THEORY = SGP/SGP4

EPOCH          = 2025-12-11T20:00:01.999872
MEAN_MOTION    = 15.89288847
ECCENTRICITY   = .00017964
INCLINATION    = 42.9977
RA_OF_ASC_NODE = 257.7264
ARG_OF_PERICENTER = 259.1250
MEAN_ANOMALY   = 343.1540

EPHEMERIS_TYPE = 0
CLASSIFICATION_TYPE = U
NORAD_CAT_ID   = 66793
ELEMENT_SET_NO = 999
REV_AT_EPOCH   = 271
BSTAR          = -.43933196E-2
MEAN_MOTION_DOT = -.1157407E-1
MEAN_MOTION_DDOT = 0

CCSDS_OMM_VERS = 2.0
CREATION_DATE  = 
ORIGINATOR     = 

OBJECT_NAME    = STARLINK-36062
OBJECT_ID      = 2025-278D
CENTER_NAME    = EARTH
REF_FRAME      = TEME
TIME_SYSTEM    = UTC
MEAN_ELEMENT_THEORY = SGP/SGP4

EPOCH          = 2025-12-11T20:00:01.999872
MEAN_MOTION    = 15.89252888
ECCENTRICITY   = .00018077
INCLINATION    = 42.9976
RA_OF_ASC_NODE = 257.7320
ARG_OF_PERICENTER = 258.3683
MEAN_ANOMALY   = 341.7328

EPHEMERIS_TYPE = 0
CLASSIFICATION_TYPE = U
NORAD_CAT_ID   = 66794
ELEMENT_SET_NO = 999
REV_AT_EPOCH   = 281
BSTAR          = -.43221947E-2
MEAN_MOTION_DOT = -.1139118E-1
MEAN_MOTION_DDOT = 0

CCSDS_OMM_VERS = 2.0
CREATION_DATE  = 
ORIGINATOR     = 

OBJECT_NAME    = STARLINK-36047
OBJECT_ID      = 2025-278E
CENTER_NAME    = EARTH
REF_FRAME      = TEME
TIME_SYSTEM    = UTC
MEAN_ELEMENT_THEORY = SGP/SGP4

EPOCH          = 2025-12-11T20:00:01.999872
MEAN_MOTION    = 15.89318604
ECCENTRICITY   = .00018029
INCLINATION    = 42.9976
RA_OF_ASC_NODE = 257.7196
ARG_OF_PERICENTER = 256.6557
MEAN_ANOMALY   = 348.3131

EPHEMERIS_TYPE = 0
CLASSIFICATION_TYPE = U
NORAD_CAT_ID   = 66795
ELEMENT_SET_NO = 999
REV_AT_EPOCH   = 271
BSTAR          = -.44695074E-2
MEAN_MOTION_DOT = -.117652E-1
MEAN_MOTION_DDOT = 0

CCSDS_OMM_VERS = 2.0
CREATION_DATE  = 
ORIGINATOR     = 

OBJECT_NAME    = STARLINK-35964
OBJECT_ID      = 2025-278F
CENTER_NAME    = EARTH
REF_FRAME      = TEME
TIME_SYSTEM    = UTC
MEAN_ELEMENT_THEORY = SGP/SGP4

EPOCH          = 2025-12-11T20:00:01.999872
MEAN_MOTION    = 16.03474761
ECCENTRICITY   = .00016795
INCLINATION    = 42.9954
RA_OF_ASC_NODE = 257.0351
ARG_OF_PERICENTER = 256.1584
MEAN_ANOMALY   = 257.6687

EPHEMERIS_TYPE = 0
CLASSIFICATION_TYPE = U
NORAD_CAT_ID   = 66796
ELEMENT_SET_NO = 999
REV_AT_EPOCH   = 265
BSTAR          = -.24820412E-2
MEAN_MOTION_DOT = -.1614014E-1
MEAN_MOTION_DDOT = .81954453E-3

CCSDS_OMM_VERS = 2.0
CREATION_DATE  = 
ORIGINATOR     = 

OBJECT_NAME    = STARLINK-36099
OBJECT_ID      = 2025-278G
CENTER_NAME    = EARTH
REF_FRAME      = TEME
TIME_SYSTEM    = UTC
MEAN_ELEMENT_THEORY = SGP/SGP4

EPOCH          = 2025-12-11T20:00:01.999872
MEAN_MOTION    = 15.89362263
ECCENTRICITY   = .00018324
INCLINATION    = 42.9976
RA_OF_ASC_NODE = 257.7058
ARG_OF_PERICENTER = 256.3911
MEAN_ANOMALY   = 354.0360

EPHEMERIS_TYPE = 0
CLASSIFICATION_TYPE = U
NORAD_CAT_ID   = 66797
ELEMENT_SET_NO = 999
REV_AT_EPOCH   = 287
BSTAR          = -.45482068E-2
MEAN_MOTION_DOT = -.1220212E-1
MEAN_MOTION_DDOT = 0

CCSDS_OMM_VERS = 2.0
CREATION_DATE  = 
ORIGINATOR     = 

OBJECT_NAME    = STARLINK-36041
OBJECT_ID      = 2025-278H
CENTER_NAME    = EARTH
REF_FRAME      = TEME
TIME_SYSTEM    = UTC
MEAN_ELEMENT_THEORY = SGP/SGP4

EPOCH          = 2025-12-11T20:00:01.999872
MEAN_MOTION    = 15.89388673
ECCENTRICITY   = .00018023
INCLINATION    = 42.9976
RA_OF_ASC_NODE = 257.7006
ARG_OF_PERICENTER = 257.1582
MEAN_ANOMALY   = 355.2766

EPHEMERIS_TYPE = 0
CLASSIFICATION_TYPE = U
NORAD_CAT_ID   = 66798
ELEMENT_SET_NO = 999
REV_AT_EPOCH   = 265
BSTAR          = -.45501463E-2
MEAN_MOTION_DOT = -.1222127E-1
MEAN_MOTION_DDOT = 0

CCSDS_OMM_VERS = 2.0
CREATION_DATE  = 
ORIGINATOR     = 

OBJECT_NAME    = STARLINK-36044
OBJECT_ID      = 2025-278J
CENTER_NAME    = EARTH
REF_FRAME      = TEME
TIME_SYSTEM    = UTC
MEAN_ELEMENT_THEORY = SGP/SGP4

EPOCH          = 2025-12-11T20:00:01.999872
MEAN_MOTION    = 15.89412174
ECCENTRICITY   = .00018165
INCLINATION    = 42.9976
RA_OF_ASC_NODE = 257.6950
ARG_OF_PERICENTER = 257.5343
MEAN_ANOMALY   = 357.1671

EPHEMERIS_TYPE = 0
CLASSIFICATION_TYPE = U
NORAD_CAT_ID   = 66799
ELEMENT_SET_NO = 999
REV_AT_EPOCH   = 281
BSTAR          = -.45687423E-2
MEAN_MOTION_DOT = -.1227899E-1
MEAN_MOTION_DDOT = 0

CCSDS_OMM_VERS = 2.0
CREATION_DATE  = 
ORIGINATOR     = 

OBJECT_NAME    = STARLINK-35996
OBJECT_ID      = 2025-278K
CENTER_NAME    = EARTH
REF_FRAME      = TEME
TIME_SYSTEM    = UTC
MEAN_ELEMENT_THEORY = SGP/SGP4

EPOCH          = 2025-12-11T20:00:01.999872
MEAN_MOTION    = 15.89464491
ECCENTRICITY   = .00018449
INCLINATION    = 42.9975
RA_OF_ASC_NODE = 257.6834
ARG_OF_PERICENTER = 258.9841
MEAN_ANOMALY   = 0.2264

EPHEMERIS_TYPE = 0
CLASSIFICATION_TYPE = U
NORAD_CAT_ID   = 66800
ELEMENT_SET_NO = 999
REV_AT_EPOCH   = 260
BSTAR          = -.46136736E-2
MEAN_MOTION_DOT = -.1241614E-1
MEAN_MOTION_DDOT = 0

